[
  {
    "OBJECT_NAME": "STARLINK-2647",
    "OBJECT_ID": "21044W",
    "EPOCH": "2025-11-11T05:34:00.242400",
    "MEAN_MOTION": 15.06399918,
    "ECCENTRICITY": 0.0001445,
    "INCLINATION": 53.0553,
    "RA_OF_ASC_NODE": 293.3949,
    "ARG_OF_PERICENTER": 89.1778,
    "MEAN_ANOMALY": 270.9376,
    "EPHEMERIS_TYPE": 0,
    "CLASSIFICATION_TYPE": "U",
    "NORAD_CAT_ID": 48658,
    "ELEMENT_SET_NO": 999,
    "REV_AT_EPOCH": 24585,
    "BSTAR": 0.00020435,
    "MEAN_MOTION_DOT": 2.764e-05,
    "MEAN_MOTION_DDOT": 0.0,
    "TLE_LINE1": "1 48658U 21044W   25315.23194725  .00002764  00000+0  20435-3 0  9996",
    "TLE_LINE2": "2 48658  53.0553 293.3949 0001445  89.1778 270.9376 15.06399918245856",
    "COMMENT": "Grouped by shell and plane from TLE"
  },
  {
    "OBJECT_NAME": "STARLINK-2717",
    "OBJECT_ID": "21044X",
    "EPOCH": "2025-11-11T05:28:42.154752",
    "MEAN_MOTION": 15.0639165,
    "ECCENTRICITY": 0.0001411,
    "INCLINATION": 53.0554,
    "RA_OF_ASC_NODE": 293.4119,
    "ARG_OF_PERICENTER": 100.4947,
    "MEAN_ANOMALY": 259.6201,
    "EPHEMERIS_TYPE": 0,
    "CLASSIFICATION_TYPE": "U",
    "NORAD_CAT_ID": 48659,
    "ELEMENT_SET_NO": 999,
    "REV_AT_EPOCH": 24585,
    "BSTAR": 0.00053552,
    "MEAN_MOTION_DOT": 7.702e-05,
    "MEAN_MOTION_DDOT": 0.0,
    "TLE_LINE1": "1 48659U 21044X   25315.22826568  .00007702  00000+0  53552-3 0  9996",
    "TLE_LINE2": "2 48659  53.0554 293.4119 0001411 100.4947 259.6201 15.06391650245852",
    "COMMENT": "Grouped by shell and plane from TLE"
  },
  {
    "OBJECT_NAME": "STARLINK-3953",
    "OBJECT_ID": "22051AC",
    "EPOCH": "2025-11-11T03:49:57.991872",
    "MEAN_MOTION": 15.08839988,
    "ECCENTRICITY": 0.0001447,
    "INCLINATION": 53.2174,
    "RA_OF_ASC_NODE": 291.4024,
    "ARG_OF_PERICENTER": 93.8795,
    "MEAN_ANOMALY": 266.2362,
    "EPHEMERIS_TYPE": 0,
    "CLASSIFICATION_TYPE": "U",
    "NORAD_CAT_ID": 52559,
    "ELEMENT_SET_NO": 999,
    "REV_AT_EPOCH": 19368,
    "BSTAR": 2.3392e-05,
    "MEAN_MOTION_DOT": 8.4e-07,
    "MEAN_MOTION_DDOT": 0.0,
    "TLE_LINE1": "1 52559U 22051AC  25315.15969898  .00000084  00000+0  23392-4 0  9991",
    "TLE_LINE2": "2 52559  53.2174 291.4024 0001447  93.8795 266.2362 15.08839988193682",
    "COMMENT": "Grouped by shell and plane from TLE"
  },
  {
    "OBJECT_NAME": "STARLINK-3956",
    "OBJECT_ID": "22051AD",
    "EPOCH": "2025-11-11T05:04:07.953024",
    "MEAN_MOTION": 15.08855009,
    "ECCENTRICITY": 0.0001376,
    "INCLINATION": 53.2166,
    "RA_OF_ASC_NODE": 290.9897,
    "ARG_OF_PERICENTER": 91.9765,
    "MEAN_ANOMALY": 268.1384,
    "EPHEMERIS_TYPE": 0,
    "CLASSIFICATION_TYPE": "U",
    "NORAD_CAT_ID": 52560,
    "ELEMENT_SET_NO": 999,
    "REV_AT_EPOCH": 19369,
    "BSTAR": 0.00068092,
    "MEAN_MOTION_DOT": 0.0001057,
    "MEAN_MOTION_DDOT": 0.0,
    "TLE_LINE1": "1 52560U 22051AD  25315.21120316  .00010570  00000+0  68092-3 0  9990",
    "TLE_LINE2": "2 52560  53.2166 290.9897 0001376  91.9765 268.1384 15.08855009193692",
    "COMMENT": "Grouped by shell and plane from TLE"
  },
  {
    "OBJECT_NAME": "STARLINK-3957",
    "OBJECT_ID": "22051AF",
    "EPOCH": "2025-11-11T04:53:31.097760",
    "MEAN_MOTION": 15.08839749,
    "ECCENTRICITY": 0.000138,
    "INCLINATION": 53.216,
    "RA_OF_ASC_NODE": 291.0238,
    "ARG_OF_PERICENTER": 91.1763,
    "MEAN_ANOMALY": 268.9387,
    "EPHEMERIS_TYPE": 0,
    "CLASSIFICATION_TYPE": "U",
    "NORAD_CAT_ID": 52562,
    "ELEMENT_SET_NO": 999,
    "REV_AT_EPOCH": 19369,
    "BSTAR": 0.00010426000000000001,
    "MEAN_MOTION_DOT": 1.372e-05,
    "MEAN_MOTION_DDOT": 0.0,
    "TLE_LINE1": "1 52562U 22051AF  25315.20383215  .00001372  00000+0  10426-3 0  9998",
    "TLE_LINE2": "2 52562  53.2160 291.0238 0001380  91.1763 268.9387 15.08839749193698",
    "COMMENT": "Grouped by shell and plane from TLE"
  },
  {
    "OBJECT_NAME": "STARLINK-3911",
    "OBJECT_ID": "22051AJ",
    "EPOCH": "2025-11-11T04:58:48.978048",
    "MEAN_MOTION": 15.0885117,
    "ECCENTRICITY": 0.0001407,
    "INCLINATION": 53.2168,
    "RA_OF_ASC_NODE": 291.0075,
    "ARG_OF_PERICENTER": 87.213,
    "MEAN_ANOMALY": 272.9023,
    "EPHEMERIS_TYPE": 0,
    "CLASSIFICATION_TYPE": "U",
    "NORAD_CAT_ID": 52565,
    "ELEMENT_SET_NO": 999,
    "REV_AT_EPOCH": 19369,
    "BSTAR": 0.00013539000000000002,
    "MEAN_MOTION_DOT": 1.868e-05,
    "MEAN_MOTION_DDOT": 0.0,
    "TLE_LINE1": "1 52565U 22051AJ  25315.20751132  .00001868  00000+0  13539-3 0  9996",
    "TLE_LINE2": "2 52565  53.2168 291.0075 0001407  87.2130 272.9023 15.08851170193696",
    "COMMENT": "Grouped by shell and plane from TLE"
  },
  {
    "OBJECT_NAME": "STARLINK-3929",
    "OBJECT_ID": "22051AL",
    "EPOCH": "2025-11-11T04:48:13.511232",
    "MEAN_MOTION": 15.08843714,
    "ECCENTRICITY": 0.0001642,
    "INCLINATION": 53.2176,
    "RA_OF_ASC_NODE": 291.0392,
    "ARG_OF_PERICENTER": 73.3214,
    "MEAN_ANOMALY": 286.7958,
    "EPHEMERIS_TYPE": 0,
    "CLASSIFICATION_TYPE": "U",
    "NORAD_CAT_ID": 52567,
    "ELEMENT_SET_NO": 999,
    "REV_AT_EPOCH": 19369,
    "BSTAR": 7.7504e-05,
    "MEAN_MOTION_DOT": 9.46e-06,
    "MEAN_MOTION_DDOT": 0.0,
    "TLE_LINE1": "1 52567U 22051AL  25315.20015638  .00000946  00000+0  77504-4 0  9991",
    "TLE_LINE2": "2 52567  53.2176 291.0392 0001642  73.3214 286.7958 15.08843714193694",
    "COMMENT": "Grouped by shell and plane from TLE"
  },
  {
    "OBJECT_NAME": "STARLINK-3930",
    "OBJECT_ID": "22051AM",
    "EPOCH": "2025-11-11T06:07:42.970080",
    "MEAN_MOTION": 15.08841932,
    "ECCENTRICITY": 0.0001464,
    "INCLINATION": 53.2177,
    "RA_OF_ASC_NODE": 290.7943,
    "ARG_OF_PERICENTER": 93.1849,
    "MEAN_ANOMALY": 266.9311,
    "EPHEMERIS_TYPE": 0,
    "CLASSIFICATION_TYPE": "U",
    "NORAD_CAT_ID": 52568,
    "ELEMENT_SET_NO": 999,
    "REV_AT_EPOCH": 19370,
    "BSTAR": 0.00013181,
    "MEAN_MOTION_DOT": 1.811e-05,
    "MEAN_MOTION_DDOT": 0.0,
    "TLE_LINE1": "1 52568U 22051AM  25315.25535845  .00001811  00000+0  13181-3 0  9996",
    "TLE_LINE2": "2 52568  53.2177 290.7943 0001464  93.1849 266.9311 15.08841932193705",
    "COMMENT": "Grouped by shell and plane from TLE"
  },
  {
    "OBJECT_NAME": "STARLINK-3927",
    "OBJECT_ID": "22051AN",
    "EPOCH": "2025-11-11T06:18:18.703872",
    "MEAN_MOTION": 15.08846968,
    "ECCENTRICITY": 0.0001267,
    "INCLINATION": 53.2175,
    "RA_OF_ASC_NODE": 290.7603,
    "ARG_OF_PERICENTER": 86.6802,
    "MEAN_ANOMALY": 273.4336,
    "EPHEMERIS_TYPE": 0,
    "CLASSIFICATION_TYPE": "U",
    "NORAD_CAT_ID": 52569,
    "ELEMENT_SET_NO": 999,
    "REV_AT_EPOCH": 19370,
    "BSTAR": 8.2675e-05,
    "MEAN_MOTION_DOT": 1.028e-05,
    "MEAN_MOTION_DDOT": 0.0,
    "TLE_LINE1": "1 52569U 22051AN  25315.26271648  .00001028  00000+0  82675-4 0  9991",
    "TLE_LINE2": "2 52569  53.2175 290.7603 0001267  86.6802 273.4336 15.08846968193708",
    "COMMENT": "Grouped by shell and plane from TLE"
  },
  {
    "OBJECT_NAME": "STARLINK-3901",
    "OBJECT_ID": "22051AQ",
    "EPOCH": "2025-11-11T06:13:00.862464",
    "MEAN_MOTION": 15.08841827,
    "ECCENTRICITY": 0.0001364,
    "INCLINATION": 53.2177,
    "RA_OF_ASC_NODE": 290.7783,
    "ARG_OF_PERICENTER": 89.4109,
    "MEAN_ANOMALY": 270.7039,
    "EPHEMERIS_TYPE": 0,
    "CLASSIFICATION_TYPE": "U",
    "NORAD_CAT_ID": 52574,
    "ELEMENT_SET_NO": 999,
    "REV_AT_EPOCH": 19370,
    "BSTAR": 7.649000000000001e-05,
    "MEAN_MOTION_DOT": 9.3e-06,
    "MEAN_MOTION_DDOT": 0.0,
    "TLE_LINE1": "1 52574U 22051AQ  25315.25903776  .00000930  00000+0  76490-4 0  9999",
    "TLE_LINE2": "2 52574  53.2177 290.7783 0001364  89.4109 270.7039 15.08841827193703",
    "COMMENT": "Grouped by shell and plane from TLE"
  },
  {
    "OBJECT_NAME": "STARLINK-3932",
    "OBJECT_ID": "22051AS",
    "EPOCH": "2025-11-11T05:47:53.994624",
    "MEAN_MOTION": 15.08846055,
    "ECCENTRICITY": 0.0001973,
    "INCLINATION": 53.218,
    "RA_OF_ASC_NODE": 290.8555,
    "ARG_OF_PERICENTER": 91.7193,
    "MEAN_ANOMALY": 268.4025,
    "EPHEMERIS_TYPE": 0,
    "CLASSIFICATION_TYPE": "U",
    "NORAD_CAT_ID": 52576,
    "ELEMENT_SET_NO": 999,
    "REV_AT_EPOCH": 19370,
    "BSTAR": 0.00011051999999999999,
    "MEAN_MOTION_DOT": 1.471e-05,
    "MEAN_MOTION_DDOT": 0.0,
    "TLE_LINE1": "1 52576U 22051AS  25315.24159716  .00001471  00000+0  11052-3 0  9990",
    "TLE_LINE2": "2 52576  53.2180 290.8555 0001973  91.7193 268.4025 15.08846055193709",
    "COMMENT": "Grouped by shell and plane from TLE"
  },
  {
    "OBJECT_NAME": "STARLINK-3915",
    "OBJECT_ID": "22051AX",
    "EPOCH": "2025-11-11T05:41:13.435584",
    "MEAN_MOTION": 15.08834794,
    "ECCENTRICITY": 0.0001438,
    "INCLINATION": 53.2179,
    "RA_OF_ASC_NODE": 290.8772,
    "ARG_OF_PERICENTER": 96.1343,
    "MEAN_ANOMALY": 263.9813,
    "EPHEMERIS_TYPE": 0,
    "CLASSIFICATION_TYPE": "U",
    "NORAD_CAT_ID": 52581,
    "ELEMENT_SET_NO": 999,
    "REV_AT_EPOCH": 19370,
    "BSTAR": 8.5958e-05,
    "MEAN_MOTION_DOT": 1.08e-05,
    "MEAN_MOTION_DDOT": 0.0,
    "TLE_LINE1": "1 52581U 22051AX  25315.23696106  .00001080  00000+0  85958-4 0  9997",
    "TLE_LINE2": "2 52581  53.2179 290.8772 0001438  96.1343 263.9813 15.08834794193708",
    "COMMENT": "Grouped by shell and plane from TLE"
  },
  {
    "OBJECT_NAME": "STARLINK-3895",
    "OBJECT_ID": "22051AZ",
    "EPOCH": "2025-11-11T05:35:55.282272",
    "MEAN_MOTION": 15.0883827,
    "ECCENTRICITY": 0.0001475,
    "INCLINATION": 53.2188,
    "RA_OF_ASC_NODE": 290.8928,
    "ARG_OF_PERICENTER": 85.2214,
    "MEAN_ANOMALY": 274.8946,
    "EPHEMERIS_TYPE": 0,
    "CLASSIFICATION_TYPE": "U",
    "NORAD_CAT_ID": 52583,
    "ELEMENT_SET_NO": 999,
    "REV_AT_EPOCH": 19370,
    "BSTAR": 3.6780000000000004e-05,
    "MEAN_MOTION_DOT": 2.97e-06,
    "MEAN_MOTION_DDOT": 0.0,
    "TLE_LINE1": "1 52583U 22051AZ  25315.23327873  .00000297  00000+0  36780-4 0  9999",
    "TLE_LINE2": "2 52583  53.2188 290.8928 0001475  85.2214 274.8946 15.08838270193701",
    "COMMENT": "Grouped by shell and plane from TLE"
  }
]